[{"OBJECT_NAME":"ESEO","OBJECT_ID":"2018-099AL","EPOCH":"2026-03-09T15:43:37.559712","MEAN_MOTION":15.03914518,"ECCENTRICITY":0.00110626,"INCLINATION":97.4113,"RA_OF_ASC_NODE":110.2601,"ARG_OF_PERICENTER":317.6,"MEAN_ANOMALY":42.4371,"EPHEMERIS_TYPE":0,"CLASSIFICATION_TYPE":"U","NORAD_CAT_ID":43792,"ELEMENT_SET_NO":999,"REV_AT_EPOCH":39684,"BSTAR":0.00020934561,"MEAN_MOTION_DOT":2.831e-5,"MEAN_MOTION_DDOT":0},{"OBJECT_NAME":"STARLINK-30357","OBJECT_ID":"2023-131U","EPOCH":"2026-03-09T07:54:50.095008","MEAN_MOTION":15.02532723,"ECCENTRICITY":0.00011901,"INCLINATION":43.0008,"RA_OF_ASC_NODE":173.4323,"ARG_OF_PERICENTER":269.2159,"MEAN_ANOMALY":90.8547,"EPHEMERIS_TYPE":0,"CLASSIFICATION_TYPE":"U","NORAD_CAT_ID":57750,"ELEMENT_SET_NO":999,"REV_AT_EPOCH":13987,"BSTAR":5.2367908e-5,"MEAN_MOTION_DOT":5.04e-6,"MEAN_MOTION_DDOT":0}]
